NORAD_CAT_ID,OBJECT_NAME,OBJECT_TYPE,EPOCH,MEAN_MOTION,ECCENTRICITY,INCLINATION,RA_OF_ASC_NODE,ARG_OF_PERICENTER,MEAN_ANOMALY,BSTAR,MEAN_MOTION_DOT,MEAN_MOTION_DDOT,TLE_LINE0,TLE_LINE1,TLE_LINE2,SEMIMAJOR_AXIS,PERIOD,APOGEE,PERIGEE,DECAYED
51755.0,STARLINK-3460,PAYLOAD,2023-10-10 12:02:39,15.08860347,0.0001307,53.216,304.9297,94.0066,266.1076,0.00082795,0.00012921,0.0,0 STARLINK-3460,1 51755U 22016AT  23283.50184704  .00012921  00000-0  82795-3 0  9990,2 51755  53.2160 304.9297 0001307  94.0066 266.1076 15.08860347 91787,6917.818,95.436,540.587,538.779,0.0
51755.0,STARLINK-3460,PAYLOAD,2023-10-10 18:24:12,15.08842379,0.00019,53.216,303.7393,85.3723,274.7486,0.00028496,4.25e-05,0.0,0 STARLINK-3460,1 51755U 22016AT  23283.76681283  .00004250  00000-0  28496-3 0  9996,2 51755  53.2160 303.7393 0001900  85.3723 274.7486 15.08842379 91823,6917.873,95.437,541.053,538.424,0.0
51755.0,STARLINK-3460,PAYLOAD,2023-10-11 02:21:08,15.08831794,0.0001415,53.2158,302.2537,89.305,270.8105,0.00016796,2.386e-05,0.0,0 STARLINK-3460,1 51755U 22016AT  23284.09801493  .00002386  00000-0  16796-3 0  9998,2 51755  53.2158 302.2537 0001415  89.3050 270.8105 15.08831794 91871,6917.905,95.438,540.749,538.792,0.0
51755.0,STARLINK-3460,PAYLOAD,2023-10-11 08:42:41,15.08836027,0.0001501,53.2153,301.0642,86.5522,273.5642,0.0012434,0.00019554,0.0,0 STARLINK-3460,1 51755U 22016AT  23284.36297710  .00019554  00000-0  12434-2 0  9998,2 51755  53.2153 301.0642 0001501  86.5522 273.5642 15.08836027 90801,6917.893,95.438,540.796,538.719,0.0
51755.0,STARLINK-3460,PAYLOAD,2023-10-12 08:33:28,15.08850879,0.0001656,53.2155,296.6035,89.8144,270.3038,0.00085083,0.00013283,0.0,0 STARLINK-3460,1 51755U 22016AT  23285.35657850  .00013283  00000-0  85083-3 0  9997,2 51755  53.2155 296.6035 0001656  89.8144 270.3038 15.08850879 90956,6917.847,95.437,540.858,538.567,0.0
51755.0,STARLINK-3460,PAYLOAD,2023-10-12 18:05:47,15.08845705,0.0001692,53.2157,294.8191,87.3751,272.7435,0.00051933,7.988e-05,0.0,0 STARLINK-3460,1 51755U 22016AT  23285.75402016  .00007988  00000-0  51933-3 0  9995,2 51755  53.2157 294.8191 0001692  87.3751 272.7435 15.08845705 92128,6917.863,95.437,540.898,538.557,0.0
51755.0,STARLINK-3460,PAYLOAD,2023-10-13 06:48:52,15.08841565,0.0001613,53.2154,292.4401,89.1142,271.0035,0.00022954,3.367e-05,0.0,0 STARLINK-3460,1 51755U 22016AT  23286.28394131  .00003367  00000-0  22954-3 0  9990,2 51755  53.2154 292.4401 0001613  89.1142 271.0035 15.08841565 92207,6917.876,95.437,540.856,538.625,0.0
51755.0,STARLINK-3460,PAYLOAD,2023-10-13 17:56:34,15.08848885,0.000162,53.215,290.3587,88.202,271.9158,0.00033341,5.023e-05,0.0,0 STARLINK-3460,1 51755U 22016AT  23286.74761939  .00005023  00000-0  33341-3 0  9998,2 51755  53.2150 290.3587 0001620  88.2020 271.9158 15.08848885 91169,6917.853,95.437,540.839,538.598,0.0
51755.0,STARLINK-3460,PAYLOAD,2023-10-14 06:39:38,15.08859082,0.0001769,53.2151,287.9787,94.7993,265.3201,0.0005236,8.059e-05,0.0,0 STARLINK-3460,1 51755U 22016AT  23287.27753418  .00008059  00000-0  52360-3 0  9994,2 51755  53.2151 287.9787 0001769  94.7993 265.3201 15.08859082 92358,6917.822,95.436,540.911,538.463,0.0
51755.0,STARLINK-3460,PAYLOAD,2023-10-14 17:47:21,15.08839069,0.0001887,53.2162,285.898,87.0466,273.0743,3.0416e-06,-2.4e-06,0.0,0 STARLINK-3460,1 51755U 22016AT  23287.74122080 -.00000240  00000-0  30416-5 0  9996,2 51755  53.2162 285.8980 0001887  87.0466 273.0743 15.08839069 92421,6917.883,95.438,541.054,538.443,0.0
51755.0,STARLINK-3460,PAYLOAD,2023-10-15 06:30:27,15.08829873,0.0001448,53.2153,283.5188,91.9969,268.1189,-6.5714e-05,-1.333e-05,0.0,0 STARLINK-3460,1 51755U 22016AT  23288.27114686 -.00001333  00000-0 -65714-4 0  9991,2 51755  53.2153 283.5188 0001448  91.9969 268.1189 15.08829873 92501,6917.911,95.438,540.778,538.775,0.0
51755.0,STARLINK-3460,PAYLOAD,2023-10-16 04:45:50,15.08853013,0.0001432,53.2161,279.3544,94.8209,265.2947,0.00061734,9.554e-05,0.0,0 STARLINK-3460,1 51755U 22016AT  23289.19850326  .00009554  00000-0  61734-3 0  9999,2 51755  53.2161 279.3544 0001432  94.8209 265.2947 15.08853013 92649,6917.841,95.437,540.696,538.715,0.0
51755.0,STARLINK-3460,PAYLOAD,2023-10-16 09:31:59,15.08862033,0.0001518,53.2175,278.4629,96.499,263.6174,0.00099011,0.00015514,0.0,0 STARLINK-3460,1 51755U 22016AT  23289.39722193  .00015514  00000-0  99011-3 0  9993,2 51755  53.2175 278.4629 0001518  96.4990 263.6174 15.08862033 91564,6917.813,95.436,540.728,538.628,0.0
51755.0,STARLINK-3460,PAYLOAD,2023-10-17 09:22:46,15.08853848,0.0001113,53.2164,274.0003,74.3762,285.7353,0.00062278,9.641e-05,0.0,0 STARLINK-3460,1 51755U 22016AT  23290.39082091  .00009641  00000-0  62278-3 0  9990,2 51755  53.2164 274.0003 0001113  74.3762 285.7353 15.08853848 92821,6917.838,95.437,540.473,538.933,0.0
51755.0,STARLINK-3460,PAYLOAD,2023-10-18 02:52:01,15.08844141,0.0001694,53.217,270.7305,99.5378,260.5806,0.00084847,0.00013243,0.0,0 STARLINK-3460,1 51755U 22016AT  23291.11946516  .00013243  00000-0  84847-3 0  9991,2 51755  53.2170 270.7305 0001694  99.5378 260.5806 15.08844141 91821,6917.868,95.437,540.905,538.561,0.0
51755.0,STARLINK-3460,PAYLOAD,2023-10-18 06:02:48,15.08845638,0.0001558,53.2164,270.1373,100.8683,259.2484,0.00080331,0.00012522,0.0,0 STARLINK-3460,1 51755U 22016AT  23291.25194486  .00012522  00000-0  80331-3 0  9990,2 51755  53.2164 270.1373 0001558 100.8683 259.2484 15.08845638 92951,6917.863,95.437,540.806,538.65,0.0
51755.0,STARLINK-3460,PAYLOAD,2023-10-18 15:35:06,15.08847019,0.0001028,53.2151,268.3516,86.9506,273.1604,0.00055647,8.581e-05,0.0,0 STARLINK-3460,1 51755U 22016AT  23291.64938308  .00008581  00000-0  55647-3 0  9994,2 51755  53.2151 268.3516 0001028  86.9506 273.1604 15.08847019 91903,6917.859,95.437,540.435,539.013,0.0
51755.0,STARLINK-3460,PAYLOAD,2023-10-19 04:18:11,15.08843666,0.0001635,53.2161,265.9735,85.7127,274.4051,0.00023072,3.386e-05,0.0,0 STARLINK-3460,1 51755U 22016AT  23292.17930553  .00003386  00000-0  23072-3 0  9992,2 51755  53.2161 265.9735 0001635  85.7127 274.4051 15.08843666 93096,6917.869,95.437,540.865,538.603,0.0
51755.0,STARLINK-3460,PAYLOAD,2023-10-19 07:28:57,15.08849224,0.0001084,53.2159,265.3785,74.6854,285.4258,0.0002908,4.344e-05,0.0,0 STARLINK-3460,1 51755U 22016AT  23292.31178177  .00004344  00000-0  29080-3 0  9994,2 51755  53.2159 265.3785 0001084  74.6854 285.4258 15.08849224 92001,6917.852,95.437,540.467,538.967,0.0
51755.0,STARLINK-3460,PAYLOAD,2023-10-19 15:25:53,15.08846952,0.0001557,53.2158,263.891,95.972,264.1449,0.00026806,3.982e-05,0.0,0 STARLINK-3460,1 51755U 22016AT  23292.64298372  .00003982  00000-0  26806-3 0  9990,2 51755  53.2158 263.8910 0001557  95.9720 264.1449 15.08846952 92052,6917.859,95.437,540.801,538.647,0.0
51755.0,STARLINK-3460,PAYLOAD,2023-10-20 07:19:44,15.08850883,0.0001542,53.216,260.9173,97.5208,262.5959,0.00024127,3.555e-05,0.0,0 STARLINK-3460,1 51755U 22016AT  23293.30538052  .00003555  00000-0  24127-3 0  9996,2 51755  53.2160 260.9173 0001542  97.5208 262.5959 15.08850883 93267,6917.847,95.437,540.779,538.645,0.0
51755.0,STARLINK-3460,PAYLOAD,2023-10-20 21:38:13,15.08831594,0.0001454,53.2169,258.2397,100.3011,259.8145,-6.1248e-05,-1.262e-05,0.0,0 STARLINK-3460,1 51755U 22016AT  23293.90154955 -.00001262  00000-0 -61248-4 0  9999,2 51755  53.2169 258.2397 0001454 100.3011 259.8145 15.08831594 92242,6917.906,95.438,540.777,538.765,0.0
51755.0,STARLINK-3460,PAYLOAD,2023-10-21 02:24:23,15.08835979,0.0001845,53.2163,257.3492,100.7895,259.3305,4.901e-05,4.92e-06,0.0,0 STARLINK-3460,1 51755U 22016AT  23294.10027072  .00000492  00000-0  49010-4 0  9996,2 51755  53.2163 257.3492 0001845 100.7895 259.3305 15.08835979 93380,6917.893,95.438,541.034,538.481,0.0
51755.0,STARLINK-3460,PAYLOAD,2023-10-21 07:10:32,15.08841099,0.0001778,53.2169,256.4561,103.3572,256.7619,0.00013925,1.929e-05,0.0,0 STARLINK-3460,1 51755U 22016AT  23294.29898804  .00001929  00000-0  13925-3 0  9996,2 51755  53.2169 256.4561 0001778 103.3572 256.7619 15.08841099 92309,6917.877,95.437,540.972,538.512,0.0
51755.0,STARLINK-3460,PAYLOAD,2023-10-21 21:29:00,15.08848443,0.0001498,53.2153,253.7802,92.1105,268.0059,0.00044612,6.821e-05,0.0,0 STARLINK-3460,1 51755U 22016AT  23294.89514822  .00006821  00000-0  44612-3 0  9990,2 51755  53.2153 253.7802 0001498  92.1105 268.0059 15.08848443 92399,6917.855,95.437,540.756,538.683,0.0
51755.0,STARLINK-3460,PAYLOAD,2023-10-22 03:50:33,15.0886364,0.0001543,53.2147,252.5905,95.1745,264.9423,0.00094262,0.00014755,0.0,0 STARLINK-3460,1 51755U 22016AT  23295.16010448  .00014755  00000-0  94262-3 0  9997,2 51755  53.2147 252.5905 0001543  95.1745 264.9423 15.08863640 93541,6917.808,95.436,540.741,538.606,0.0
51755.0,STARLINK-3460,PAYLOAD,2023-10-23 03:41:20,15.08836967,0.0001465,53.2151,248.1298,104.9986,255.1168,0.00014247,1.98e-05,0.0,0 STARLINK-3460,1 51755U 22016AT  23296.15370835  .00001980  00000-0  14247-3 0  9997,2 51755  53.2151 248.1298 0001465 104.9986 255.1168 15.08836967 93697,6917.89,95.438,540.768,538.741,0.0
51755.0,STARLINK-3460,PAYLOAD,2023-10-24 13:04:26,15.08843594,0.0001478,53.2154,241.8885,110.2102,249.9049,0.00035063,5.297e-05,0.0,0 STARLINK-3460,1 51755U 22016AT  23297.54475277  .00005297  00000-0  35063-3 0  9991,2 51755  53.2154 241.8885 0001478 110.2102 249.9049 15.08843594 93903,6917.869,95.437,540.757,538.712,0.0
51755.0,STARLINK-3460,PAYLOAD,2023-10-25 20:52:09,15.08840233,0.0001418,53.2153,235.9394,102.4424,257.6727,6.3581e-05,7.24e-06,0.0,0 STARLINK-3460,1 51755U 22016AT  23298.86955478  .00000724  00000-0  63581-4 0  9990,2 51755  53.2153 235.9394 0001418 102.4424 257.6727 15.08840233 94104,6917.88,95.438,540.726,538.764,0.0
51755.0,STARLINK-3460,PAYLOAD,2023-10-26 04:49:04,15.08847234,0.0001392,53.2153,234.4526,99.8125,260.3025,0.00019187,2.768e-05,0.0,0 STARLINK-3460,1 51755U 22016AT  23299.20075228  .00002768  00000-0  19187-3 0  9997,2 51755  53.2153 234.4526 0001392  99.8125 260.3025 15.08847234 93045,6917.858,95.437,540.686,538.76,0.0
